FLOCK 2B 8
1 40957U 98067HJ  16061.96872461  .00078597  00000-0  60230-3 0  9992
2 40957  51.6374 222.9639 0004658 183.4731 176.6236 15.71396036 23047
LQSAT
1 40958U 15057A   16062.17541831  .00000190  00000-0  37549-4 0  9991
2 40958  98.0233 138.4396 0019284 133.7426 226.5403 14.72821167 21630
LINGQIAO VIDEO A
1 40959U 15057B   16062.22812691  .00000203  00000-0  39335-4 0  9993
2 40959  98.0232 138.5229 0019181 135.7011 224.5743 14.72973989 21651
LINGQIAO VIDEO B
1 40960U 15057C   16062.21749552  .00000210  00000-0  40384-4 0  9993
2 40960  98.0231 138.5364 0019211 137.4710 222.8002 14.73081562 21658
JILIN 1
1 40961U 15057D   16062.20150019  .00000269  00000-0  49296-4 0  9992
2 40961  98.0234 138.5564 0019422 138.6288 221.6404 14.73262106 21659
FLOCK 2B 10
1 40962U 98067HK  16061.72204785  .00045251  00000-0  41100-3 0  9996
2 40962  51.6379 226.5856 0006888 202.3341 157.7356 15.67492006 22898
FLOCK 2B 9
1 40963U 98067HL  16061.73052814  .00044690  00000-0  40617-3 0  9990
2 40963  51.6377 226.6397 0006859 213.6296 146.4265 15.67482104 22892
FLOCK 2B 13
1 40979U 98067HM  16061.73870773  .00040526  00000-0  37378-3 0  9993
2 40979  51.6383 226.7035 0007552 199.3681 160.7030 15.67157438 22792
FLOCK 2B 14
1 40980U 98067HN  16062.03373303  .00052707  00000-0  44933-3 0  9995
2 40980  51.6369 224.1574 0006478 205.4183 154.6496 15.68981886 22858
APSTAR 9
1 40982U 15059A   16061.16271516 -.00000275  00000-0  00000+0 0  9990
2 40982   0.0484 294.1769 0002580 345.9416  79.8338  1.00273187  1464
TURKSAT 4B
1 40984U 15060A   16061.41771123  .00000106  00000-0  00000+0 0  9993
2 40984   0.0190 242.0435 0002358  91.9185  26.0078  1.00271225  1417
BREEZE-M R/B
1 40985U 15060B   16060.66116545 -.00000150 +00000-0 +00000-0 0  9992
2 40985 013.4635 332.0411 4784846 030.5116 350.1797 01.91629237002599
BREEZE-M DEB (TANK)
1 40986U 15060C   16060.19765998  .00002202  00000-0  96695-3 0  9990
2 40986  49.1675 275.9249 6132492  54.2929 348.4476  3.80465515  5139
FENGYUN 2E DEB
1 40987U 08066D   16061.55106919 -.00000026  00000-0  00000+0 0  9996
2 40987   3.0610  59.7629 0109871 253.3191 105.8125  1.00368476 24742
TIANHUI 1-03
1 40988U 15061A   16062.18041877 -.00001248  00000-0 -49717-4 0  9992
2 40988  97.3624 182.2561 0008309 200.0723 279.7656 15.23267010 19448
MSG 4 DEB (COOLER COVER)
1 40989U 15034E   16059.60416716 -.00000177 +00000-0 +00000-0 0  9991
2 40989 002.7286 259.0823 0034223 036.3846 323.4574 01.01523201002140
MSG 4 DEB (BAFFLE COVER)
1 40990U 15034F   16040.61002800 -.00000179  00000-0  00000+0 0  9990
2 40990   2.7641 260.0866 0060679 309.0958  50.2372  1.02625938  2089
ATLAS 5 CENTAUR DEB
1 40991U 15044C   16060.81754911 -.00000085  00000-0  00000+0 0  9999
2 40991  18.9210 295.7650 6009768 236.6291  51.1820  2.08453466  3485
IRIDIUM 33 DEB
1 40992U 97051ABE 16060.81714501 +.00003155 +00000-0 +72192-3 0  9994
2 40992 086.3061 089.5678 0022698 324.6670 159.4962 14.55247700212420
IRIDIUM 33 DEB
1 40993U 97051ABF 16055.90899781  .00007407  00000-0  16306-2 0  9991
2 40993  86.3795 118.6667 0017758 300.6965  59.2872 14.57254221189595
IRIDIUM 33 DEB
1 40994U 97051ABG 16048.45424921  .00010598  00000-0  20848-2 0  9995
2 40994  86.3950 111.9028 0007878  30.6188 329.5482 14.62499601 73473
IRIDIUM 33 DEB
1 40995U 97051ABH 16060.93673904 +.00002250 +00000-0 +66141-3 0  9993
2 40995 086.3938 128.4927 0040924 030.9838 093.0694 14.42886150191033
IRIDIUM 33 DEB
1 40996U 97051ABJ 16058.61048440 +.00001416 +00000-0 +40019-3 0  9996
2 40996 086.3747 114.8426 0011872 193.6079 321.8612 14.44997571105375
IRIDIUM 33 DEB
1 40997U 97051ABK 16059.39803190  .00014029  00000-0  20123-2 0  9991
2 40997  86.3607 105.4024 0017229 155.2201 204.9850 14.76328518243534
IRIDIUM 33 DEB
1 40998U 97051ABL 16060.94065138 +.00000473 +00000-0 +15440-3 0  9992
2 40998 086.3873 122.7650 0006280 297.8350 187.8131 14.36571339557277
FENGYUN 1C DEB
1 40999U 99025EXD 16060.72427689  .00000871  00000-0  61238-3 0  9993
2 40999  99.1887  34.0444 0073815 347.4643  12.4256 13.99645762315101
FENGYUN 1C DEB
1 41000U 99025EXE 16061.13177741  .00000813  00000-0  72861-3 0  9994
2 41000  97.5465  21.2212 0391319 260.6508  95.0201 13.56611832356913
FENGYUN 1C DEB
1 41004U 99025EXJ 16061.69629521  .00000987  00000-0  11285-2 0  9991
2 41004  99.1637 234.7319 0266461 296.9924  60.4237 13.58122245 85368
FENGYUN 1C DEB
1 41005U 99025EXK 16060.24973581  .00000766  00000-0  48898-3 0  9996
2 41005  98.9493  66.5846 0626000  89.9186 277.3628 13.37123165 44874
FENGYUN 1C DEB
1 41006U 99025EXL 16059.83770370  .00001727  00000-0  17141-2 0  9995
2 41006 102.3879 278.6141 0222437  44.5958 317.2838 13.70009879 83790
FENGYUN 1C DEB
1 41008U 99025EXN 16055.95530383 +.00000235 +00000-0 +16932-3 0  9995
2 41008 099.5170 322.5399 0521656 297.3455 057.5507 13.55598727079107
FENGYUN 1C DEB
1 41009U 99025EXP 16060.54447945  .00001569  00000-0  79810-3 0  9993
2 41009  99.1796 179.6139 0023636 223.4369 136.4942 14.17267636 81137
FENGYUN 1C DEB
1 41010U 99025EXQ 16061.08230619  .00001077  00000-0  65337-3 0  9996
2 41010  99.1903 157.5293 0039093 334.4955 147.8422 14.08234820181244
FENGYUN 1C DEB
1 41011U 99025EXR 16055.39523635  .00000898  00000-0  19762-3 0  9998
2 41011  99.1885 214.5663 0367397 286.2377  69.8681 14.26178870 59945
FENGYUN 1C DEB
1 41013U 99025EXT 16052.87279432  .00003674  00000-0  14611-2 0  9995
2 41013  99.0949 289.9115 0429207  94.5329 270.4976 13.88962953 54055
FENGYUN 1C DEB
1 41014U 99025EXU 16061.19728938  .00003902  00000-0  91849-3 0  9994
2 41014  98.8933 210.9092 0075694 199.3578 160.4738 14.53228521103981
FENGYUN 1C DEB
1 41016U 99025EXW 16055.85493453  .00001023  00000-0  69248-3 0  9993
2 41016  98.2207  77.9520 0177107 200.4762 158.9241 13.94883966 99573
FENGYUN 1C DEB
1 41017U 99025EXX 16048.23031630  .00028021  00000-0  66911-2 0  9993
2 41017  99.1148 202.9380 0018667 122.3422   2.3639 14.53480835177992
FENGYUN 1C DEB
1 41018U 99025EXY 16060.03191069 -.00000603  00000-0 -68637-3 0  9995
2 41018  99.8439 355.8871 0328732 266.8578  89.4899 13.44740242400509
NAVSTAR 75 (USA 265)
1 41019U 15062A   16060.99008793  .00000008  00000-0  00000+0 0  9994
2 41019  54.9784 179.0806 0012367 204.9808 154.9514  2.00561980  2412
ATLAS 5 CENTAUR R/B
1 41020U 15062B   16060.73833227  .00000009  00000-0  10000-3 0  9992
2 41020  55.3141 178.5577 0220594 292.1370  65.5251  1.90410918  2317
CHINASAT 2C
1 41021U 15063A   16060.79148485 -.00000333 +00000-0 +00000-0 0  9992
2 41021 000.3353 270.3758 0003431 132.5170 144.4341 01.00269202001303
CZ-3B R/B
1 41022U 15063B   16059.76023931  .00049516 -23467-6  35620-2 0  9998
2 41022  26.5882 243.2936 7318909 251.2515  18.8305  2.26220002  2585
TIANHUI 1-03 DEB
1 41023U 15061B   16061.07715007  .00006111  00000-0  64491-3 0  9990
2 41023  97.3363 171.5749 0213156 111.4535 250.9466 14.74268559 18119
TIANHUI 1-03 DEB
1 41024U 15061C   16061.24176781  .00006060  00000-0  68223-3 0  9990
2 41024  97.3686 171.2423 0239356 119.3796 243.1389 14.68350002 18004
YAOGAN 28
1 41026U 15064A   16062.23178639  .00004043  00000-0  14191-3 0  9993
2 41026  97.2548 192.9988 0007578 203.7172 250.1159 15.29952801 17581
GSAT 15
1 41028U 15065A   16061.73176862 -.00000267  00000-0  00000+0 0  9991
2 41028   0.0196 216.0195 0001736 106.4114 194.4379  1.00270543  1168
BADR 7
1 41029U 15065B   16061.24586836  .00000141  00000-0  00000+0 0  9994
2 41029   0.0500 251.1747 0000755  49.8407 339.7513  1.00550166  1207
ARIANE 5 R/B
1 41030U 15065C   16061.37486923  .00001577  00000-0  41444-3 0  9991
2 41030   3.9593 146.2244 7282917 275.5477  12.9959  2.28063847  2541
ARIANE 5 DEB (SYLDA)
1 41031U 15065D   16061.69533390  .00015631  00000-0  38554-2 0  9991
2 41031   3.8326 149.1570 7257053 273.2907  13.8451  2.31415299  2548
COSMOS 2510
1 41032U 15066A   16062.09698185 -.00000593  00000-0  00000+0 0  9996
2 41032  63.8019  91.8288 7030640 269.4913 149.0699  2.00627361  2129
FREGAT R/B
1 41033U 15066B   16061.00494137 -.00001290  00000-0  00000+0 0  9993
2 41033  63.8497  91.8627 7014285 269.4468  17.0502  2.01568974  2109
LAOSAT 1
1 41034U 15067A   16061.62697957 -.00000352  00000-0  00000+0 0  9996
2 41034   0.0078  72.5454 0001828 163.2924 278.2311  1.00272763  1162
CZ-3B R/B
1 41035U 15067B   16043.51004015  .02040637  30509-6  36687-2 0  9999
2 41035  17.9756 266.3187 6870553 239.5623  16.2142  2.89484592  1791
TELSTAR 12V
1 41036U 15068A   16061.32404542 -.00000128  00000-0  00000+0 0  9993
2 41036   0.0256 178.3167 0001447 162.3660 280.4989  1.00272399  1028
H-2A R/B
1 41037U 15068B   16061.23805571 -.00000031  00000-0  00000+0 0  9994
2 41037  18.9987 184.4859 6463563 217.3633  72.5963  2.12568548  2089
YAOGAN 29
1 41038U 15069A   16062.19166324  .00000149  00000-0  26293-4 0  9994
2 41038  97.8507  47.2862 0001194  55.7196 304.4133 14.80274727 14253
CZ-4C R/B
1 41039U 15069B   16062.15080181  .00001218  00000-0  81399-4 0  9993
2 41039  97.7955  50.2252 0099231  72.0123 289.1885 15.05029264 14488
YAOGAN 28 DEB
1 41040U 15064C   16061.16574608  .00004632  00000-0  14337-3 0  9992
2 41040  97.2551 192.4009 0017609 212.9084 147.1062 15.33817516 16259
CZ-4B DEB
1 41041U 15064D   16061.13445627  .00012112  00000-0  10173-2 0  9993
2 41041  97.2680 183.7559 0228705 154.7540 206.4849 14.80271069 15469
CZ-4B DEB
1 41042U 15064E   16061.13233855  .00011688  00000-0  95307-3 0  9992
2 41042  97.1907 182.9580 0223511 157.9312 203.1632 14.82042280 15487
AVUM R/B
1 41044U 15070B   16058.13267497  .00176447 -23239-4  60574-3 0  9993
2 41044   5.9735 153.9864 0772992 122.4493 245.2726 14.38494871 12269
NOAA 16 DEB
1 41045U 00055C   16062.03372083  .00000212  00000-0  13497-3 0  9997
2 41045  98.8821 132.2497 0013199 222.6384 137.3798 14.14058088 13809
